SCD 1                   
1 22490U 93009B   26152.49266252  .00000437  00000+0  68675-4 0  9999
2 22490  24.9707 304.4817 0041833 332.1504  54.2695 14.46112655758840
TECHSAT 1B (GO-32)      
1 25397U 98043D   26154.57772251  .00000069  00000+0  49972-4 0  9993
2 25397  99.0064 146.9934 0000319 213.6137 146.5021 14.24425649449397
SCD 2                   
1 25504U 98060A   26155.18435475  .00000418  00000+0  65983-4 0  9992
2 25504  24.9935 152.3470 0016655 346.6846  64.2039 14.45520489458443
DLR-TUBSAT              
1 25757U 99029B   26155.20427424  .00000136  00000+0  45301-4 0  9995
2 25757  98.6692 150.2812 0014816  33.8590 326.3547 14.52423384431368
TERRA                   
1 25994U 99068A   26155.14712492  .00000498  00000+0  11028-3 0  9995
2 25994  97.9462 205.2097 0000811 264.5270 179.3894 14.61092589407703
MAROC-TUBSAT            
1 27004U 01056D   26155.01675274 -.00000034  00000+0  13966-4 0  9992
2 27004  99.8077 331.6284 0019906 174.4490 304.2897 13.70261883224387
AQUA                    
1 27424U 02022A   26155.19423537  .00000999  00000+0  20852-3 0  9994
2 27424  98.4271 124.2182 0001610  56.6402  33.2429 14.62137705281373
SHIYAN-1 (SY-1)         
1 28220U 04012A   26154.93825716  .00015941  00000+0  49559-3 0  9994
2 28220  97.8690 232.1498 0006632  74.7547 285.4427 15.33408091209068
AURA                    
1 28376U 04026A   26155.18187231  .00000994  00000+0  21110-3 0  9997
2 28376  98.3412 111.5282 0001396  70.6173 289.5178 14.61308757164315
IRS-P5 (CARTOSAT-1)     
1 28649U 05017A   26155.05909538  .00001645  00000+0  17162-3 0  9995
2 28649  97.5314 178.7190 0002679  96.8827 263.2696 14.91014053141869
SINAH 1                 
1 28893U 05043D   26155.13801187  .00000430  00000+0  91043-4 0  9997
2 28893  98.2845 289.3846 0013533 321.2536  38.7695 14.64148649 98614
RESURS-DK 1             
1 29228U 06021A   26155.01277219  .00002370  00000+0  13939-3 0  9999
2 29228  69.9332  13.6552 0006031 303.6136  56.4455 15.13154696100585
ARIRANG-2 (KOMPSAT-2)   
1 29268U 06031A   26155.18177542  .00000510  00000+0  10417-3 0  9992
2 29268  97.8302 340.2577 0015722 112.0705 339.0563 14.64651962 59578
LAPAN-TUBSAT            
1 29709U 07001A   26155.19071271  .00000004  00000+0  71111-5 0  9991
2 29709  98.1337 154.1218 0010947 224.3535 135.6803 14.85934922 49227
HAIYANG-1B              
1 31113U 07010A   26154.58027472  .00000100  00000+0  54012-4 0  9996
2 31113  98.3489 136.9535 0012340 239.3242 120.6726 14.31023350998685
COSMO-SKYMED 1          
1 31598U 07023A   26155.16834484  .00002285  00000+0  20357-3 0  9991
2 31598  97.8863 346.9158 0001565  81.7565 278.3833 14.97042098 27843
TERRASAR-X              
1 31698U 07026A   26152.44920595  .00000799  00000+0  41227-4 0  9990
2 31698  97.4458 160.3801 0001803  98.4388 261.7051 15.19149262 50835
WORLDVIEW-1 (WV-1)      
1 32060U 07041A   26155.16197056  .00006824  00000+0  28364-3 0  9992
2 32060  97.3864 275.0954 0003328  55.4307 304.7244 15.24114281 40896
YAOGAN-3                
1 32289U 07055A   26155.24004804  .00003622  00000+0  37444-3 0  9999
2 32289  97.8154 185.2466 0002052  89.8725 270.2728 14.90732453  3942
COSMO-SKYMED 2          
1 32376U 07059A   26155.19901376  .00000447  00000+0  62668-4 0  9993
2 32376  97.8884 338.9856 0001460  87.6919 272.4462 14.82160301    81
RADARSAT-2              
1 32382U 07061A   26155.16317456 -.00000099  00000+0 -21673-4 0  9996
2 32382  98.5774 162.2813 0001286  83.5911 276.5417 14.29981598964093
CARTOSAT-2A             
1 32783U 08021A   26155.19413743  .00000786  00000+0  11246-3 0  9992
2 32783  97.7636 204.3454 0012396 147.3107 212.8874 14.79218921976883
HUANJING 1A (HJ-1A)     
1 33320U 08041A   26155.22008818  .00001054  00000+0  13258-3 0  9993
2 33320  97.6677 141.5608 0018734 176.2131 183.9229 14.83955363956487
HUANJING 1B (HJ-1B)     
1 33321U 08041B   26155.18331808  .00000643  00000+0  84086-4 0  9998
2 33321  97.6512 144.7360 0035032 224.6939 135.1451 14.83292100956489
GEOEYE 1                
1 33331U 08042A   26155.17239703  .00000631  00000+0  12751-3 0  9996
2 33331  98.1237 229.2683 0005559 100.6447 259.5382 14.64713263948241
THEOS                   
1 33396U 08049A   26155.14589660  .00000150  00000+0  90314-4 0  9999
2 33396  98.5573 212.8520 0001282  82.1297 278.0025 14.20131322916116
COSMO-SKYMED 3          
1 33412U 08054A   26155.19469225  .00004343  00000+0  29485-3 0  9991
2 33412  97.8294  13.5499 0014492 315.9903  44.0169 15.06869354954981
YAOGAN-4                
1 33446U 08061A   26154.87678402  .00001167  00000+0  14933-3 0  9992
2 33446  97.9306  88.4859 0015609 111.7893 248.4984 14.83173206943694
GOSAT (IBUKI)           
1 33492U 09002A   26154.29738274  .00001196  00000+0  21934-3 0  9990
2 33492  98.0881 265.5546 0001658  91.7072 268.4322 14.67539132929420
DEIMOS-1                
1 35681U 09041A   26155.16352965  .00000665  00000+0  10544-3 0  9996
2 35681  97.7390 312.9562 0000716 140.9321 219.1941 14.75223546904966
